{"type": "FeatureCollection", "metadata": {"name": "Tornado Risk Zones (FEMA NRI)", "description": "Tornado risk zones based on FEMA National Risk Index annualized tornado frequency at county level.", "source": "FEMA National Risk Index", "license": "Public Domain (FEMA)", "date_accessed": "2026-08-14"}, "features": [{"type": "Feature", "properties": {"name": "Tornado Risk - High (>2.0/yr)", "hazard_type": "tornado", "risk_level": "high", "frequency": ">2.0 events/year"}, "geometry": {"type": "MultiPolygon", "coordinates": [[[[-117.634, 35.797], [-115.646, 35.808], [-114.633, 35.002], [-114.634, 34.871], [-114.469, 34.709], [-114.387, 34.458], [-114.133, 34.258], [-114.435, 34.08], [-117.558, 34.033], [-117.673, 33.871], [-117.803, 33.976], [-117.646, 34.289], [-117.634, 35.797]]], [[[-103.375, 35.74], [-103.041, 35.739], [-103.043, 34.954], [-103.284, 34.954], [-103.284, 34.865], [-103.496, 34.779], [-103.496, 34.691], [-103.706, 34.692], [-103.706, 34.605], [-104.129, 34.605], [-104.125, 35.142], [-103.859, 35.264], [-103.637, 35.241], [-103.637, 35.39], [-103.38, 35.397], [-103.375, 35.74]]], [[[-103.173, 38.583], [-103.173, 38.525], [-104.054, 38.522], [-104.052, 39.128], [-104.663, 39.13], [-104.661, 39.566], [-103.707, 39.566], [-103.706, 40.001], [-105.056, 40.0], [-105.055, 40.262], [-105.678, 40.268], [-106.191, 40.998], [-102.653, 41.002], [-102.665, 40.438], [-102.051, 40.44], [-102.045, 38.615], [-103.173, 38.583]]], [[[-81.167, 27.732], [-81.166, 27.733], [-81.166, 27.732], [-81.167, 27.732]]], [[[-81.309, 27.923], [-81.24, 27.847], [-81.214, 27.829], [-81.165, 27.743], [-81.169, 27.726], [-81.146, 27.711], [-81.132, 27.647], [-82.054, 27.646], [-82.106, 28.259], [-81.958, 28.345], [-81.657, 28.347], [-81.657, 28.259], [-81.557, 28.259], [-81.456, 28.085], [-81.346, 28.085], [-81.378, 28.012], [-81.441, 28.059], [-81.459, 28.04], [-81.309, 27.923]], [[-81.259, 27.847], [-81.26, 27.846], [-81.258, 27.846], [-81.259, 27.847]], [[-81.201, 27.797], [-81.2, 27.797], [-81.2, 27.798], [-81.201, 27.797]], [[-81.149, 27.699], [-81.15, 27.7], [-81.15, 27.699], [-81.149, 27.699]], [[-81.302, 27.862], [-81.301, 27.865], [-81.302, 27.865], [-81.302, 27.862]]], [[[-96.707, 36.999], [-96.001, 36.999], [-96.001, 36.161], [-96.268, 36.162], [-96.254, 36.224], [-96.457, 36.333], [-96.563, 36.305], [-96.525, 36.393], [-96.702, 36.431], [-96.754, 36.563], [-96.875, 36.471], [-97.004, 36.484], [-96.888, 36.576], [-97.056, 36.592], [-97.064, 36.684], [-96.752, 36.782], [-96.707, 36.999]]], [[[-99.541, 37.0], [-99.543, 37.381], [-99.001, 37.384], [-99.0, 36.999], [-99.541, 37.0]]], [[[-101.236, 41.395], [-100.236, 41.393], [-100.223, 40.7], [-101.248, 40.698], [-101.236, 41.395]]]]}}, {"type": "Feature", "properties": {"name": "Tornado Risk - Moderate (1.0-2.0/yr)", "hazard_type": "tornado", "risk_level": "moderate", "frequency": "1.0-2.0 events/year"}, "geometry": {"type": "MultiPolygon", "coordinates": [[[[-103.005, 31.367], [-102.913, 31.339], [-102.827, 31.267], [-102.675, 31.33], [-102.597, 31.264], [-102.574, 31.273], [-102.533, 31.261], [-102.52, 31.263], [-102.491, 31.235], [-102.466, 31.227], [-102.465, 31.218], [-102.442, 31.213], [-102.406, 31.088], [-102.379, 31.087], [-102.36, 31.082], [-102.363, 31.079], [-102.35, 31.07], [-102.329, 31.068], [-102.317, 31.052], [-102.285, 31.034], [-102.201, 31.031], [-102.19, 31.003], [-102.18, 31.017], [-102.11, 30.99], [-102.049, 31.004], [-102.012, 30.979], [-101.982, 30.987], [-101.878, 30.921], [-101.891, 30.889], [-101.85, 30.857], [-101.831, 30.802], [-101.839, 30.763], [-101.769, 30.653], [-102.343, 30.599], [-102.343, 30.284], [-102.567, 30.283], [-102.567, 30.053], [-103.585, 30.766], [-103.005, 31.367]], [[-102.974, 31.357], [-102.973, 31.356], [-102.973, 31.357], [-102.974, 31.357]], [[-102.957, 31.352], [-102.958, 31.351], [-102.957, 31.351], [-102.957, 31.352]], [[-102.756, 31.291], [-102.758, 31.291], [-102.758, 31.29], [-102.756, 31.291]], [[-102.581, 31.265], [-102.582, 31.263], [-102.58, 31.263], [-102.581, 31.265]], [[-102.577, 31.271], [-102.577, 31.268], [-102.575, 31.268], [-102.577, 31.271]], [[-102.466, 31.219], [-102.468, 31.22], [-102.469, 31.221], [-102.468, 31.219], [-102.466, 31.219]], [[-102.39, 31.086], [-102.389, 31.086], [-102.389, 31.087], [-102.39, 31.086]], [[-102.39, 31.086], [-102.391, 31.085], [-102.39, 31.085], [-102.39, 31.086]], [[-101.834, 30.809], [-101.835, 30.808], [-101.834, 30.808], [-101.834, 30.809]], [[-102.38, 31.084], [-102.381, 31.085], [-102.381, 31.084], [-102.38, 31.084]]], [[[-101.832, 30.759], [-101.833, 30.758], [-101.833, 30.759], [-101.832, 30.759]]], [[[-102.01, 30.981], [-102.01, 30.98], [-102.011, 30.981], [-102.01, 30.981]]], [[[-102.265, 31.037], [-102.266, 31.036], [-102.266, 31.037], [-102.265, 31.037]]], [[[-102.239, 31.039], [-102.24, 31.04], [-102.239, 31.04], [-102.239, 31.039]]], [[[-102.297, 31.042], [-102.298, 31.043], [-102.297, 31.043], [-102.297, 31.042]]], [[[-102.319, 31.06], [-102.32, 31.061], [-102.319, 31.061], [-102.319, 31.06]]], [[[-102.321, 31.062], [-102.32, 31.061], [-102.321, 31.061], [-102.321, 31.062]]], [[[-102.347, 31.073], [-102.348, 31.074], [-102.347, 31.074], [-102.347, 31.073]]], [[[-102.354, 31.075], [-102.355, 31.076], [-102.354, 31.076], [-102.354, 31.075]]], [[[-102.496, 31.245], [-102.497, 31.246], [-102.496, 31.246], [-102.496, 31.245]]], [[[-102.498, 31.248], [-102.499, 31.249], [-102.498, 31.249], [-102.498, 31.248]]], [[[-102.55, 31.269], [-102.551, 31.268], [-102.551, 31.269], [-102.55, 31.269]]], [[[-102.826, 31.27], [-102.827, 31.271], [-102.826, 31.271], [-102.826, 31.27]]], [[[-102.601, 31.272], [-102.602, 31.271], [-102.602, 31.272], [-102.601, 31.272]]], [[[-102.567, 31.271], [-102.567, 31.273], [-102.566, 31.271], [-102.567, 31.271]]], [[[-102.745, 31.283], [-102.744, 31.283], [-102.744, 31.282], [-102.745, 31.283]]], [[[-102.609, 31.283], [-102.608, 31.284], [-102.608, 31.283], [-102.609, 31.283]]], [[[-103.044, 34.303], [-103.065, 32.0], [-103.723, 32.0], [-103.723, 32.522], [-103.814, 32.522], [-103.766, 33.395], [-103.721, 33.57], [-103.51, 33.57], [-103.51, 33.657], [-103.718, 33.656], [-103.717, 33.82], [-103.842, 33.819], [-103.842, 34.082], [-103.946, 34.082], [-103.949, 34.605], [-103.738, 34.605], [-103.74, 34.303], [-103.044, 34.303]]], [[[-102.09, 34.313], [-101.565, 34.313], [-101.564, 33.83], [-102.086, 33.825], [-102.09, 34.313]]], [[[-111.13, 34.385], [-111.129, 34.386], [-111.129, 34.385], [-111.13, 34.385]]], [[[-102.167, 35.183], [-101.086, 35.182], [-101.091, 34.748], [-103.043, 34.747], [-103.041, 35.623], [-102.163, 35.628], [-102.167, 35.183]]], [[[-112.574, 36.879], [-112.539, 37.001], [-110.751, 37.003], [-110.751, 34.263], [-111.25, 34.453], [-111.406, 34.377], [-111.429, 34.39], [-111.406, 34.446], [-111.546, 34.415], [-111.472, 34.462], [-111.555, 34.472], [-111.552, 34.803], [-111.778, 34.803], [-111.778, 34.981], [-112.335, 34.973], [-112.336, 35.148], [-112.442, 35.149], [-112.442, 35.259], [-112.954, 35.353], [-113.334, 35.528], [-113.352, 36.048], [-112.657, 36.356], [-112.574, 36.879]], [[-111.421, 34.393], [-111.422, 34.394], [-111.422, 34.393], [-111.421, 34.393]], [[-111.399, 34.443], [-111.398, 34.444], [-111.399, 34.444], [-111.399, 34.443]], [[-111.472, 34.457], [-111.471, 34.457], [-111.472, 34.458], [-111.472, 34.457]], [[-112.573, 36.872], [-112.573, 36.873], [-112.574, 36.873], [-112.573, 36.872]], [[-111.478, 34.451], [-111.477, 34.45], [-111.477, 34.451], [-111.478, 34.451]]], [[[-103.042, 36.5], [-102.162, 36.5], [-102.163, 36.055], [-103.041, 36.055], [-103.042, 36.5]]], [[[-102.028, 36.993], [-100.633, 37.0], [-100.653, 37.475], [-100.216, 37.475], [-100.227, 38.001], [-100.664, 38.003], [-100.652, 37.736], [-101.09, 37.736], [-101.103, 38.265], [-100.244, 38.262], [-100.247, 38.698], [-102.045, 38.698], [-102.051, 40.698], [-101.345, 40.698], [-101.324, 40.003], [-101.411, 40.003], [-101.414, 39.568], [-100.72, 39.568], [-100.721, 39.133], [-99.038, 39.133], [-99.043, 38.697], [-99.585, 38.697], [-99.585, 38.349], [-99.032, 38.348], [-99.033, 38.697], [-98.48, 38.697], [-98.48, 38.522], [-97.372, 38.609], [-97.372, 38.174], [-97.702, 38.174], [-97.702, 37.912], [-97.152, 37.913], [-97.153, 38.088], [-96.523, 38.086], [-96.526, 36.999], [-97.802, 36.999], [-97.808, 37.734], [-98.465, 37.733], [-98.465, 37.825], [-99.023, 37.825], [-99.022, 38.0], [-99.35, 38.001], [-99.35, 38.088], [-99.57, 38.087], [-99.556, 37.468], [-100.107, 37.475], [-100.09, 37.002], [-100.003, 37.002], [-100.004, 36.5], [-100.546, 36.499], [-100.547, 36.057], [-101.086, 36.058], [-101.085, 36.499], [-102.032, 36.5], [-102.028, 36.993]]], [[[-102.042, 37.739], [-102.042, 36.993], [-103.086, 37.0], [-103.076, 37.643], [-103.404, 37.644], [-103.4, 38.265], [-103.502, 38.265], [-103.505, 38.524], [-103.173, 38.525], [-103.159, 38.613], [-102.045, 38.615], [-102.044, 38.262], [-101.542, 38.263], [-101.527, 37.828], [-101.527, 37.736], [-102.042, 37.739]]], [[[-105.033, 39.13], [-104.052, 39.128], [-104.054, 38.522], [-104.942, 38.52], [-104.94, 38.797], [-105.072, 38.799], [-105.033, 39.13]]], [[[-104.981, 40.0], [-103.706, 40.001], [-103.707, 39.74], [-104.885, 39.74], [-104.62, 39.822], [-104.6, 39.899], [-104.68, 39.914], [-104.791, 39.798], [-105.053, 39.791], [-105.053, 39.914], [-104.981, 40.0]], [[-104.988, 39.972], [-104.997, 39.969], [-104.988, 39.968], [-104.988, 39.972]]], [[[-103.369, 41.438], [-102.637, 41.439], [-102.792, 43.0], [-100.198, 42.999], [-100.168, 42.086], [-102.006, 42.096], [-102.068, 41.742], [-101.986, 41.742], [-101.985, 41.395], [-102.055, 41.395], [-102.056, 41.222], [-102.61, 41.222], [-102.625, 41.002], [-103.383, 41.002], [-103.369, 41.438]]], [[[-105.252, 41.657], [-104.653, 41.653], [-104.656, 42.609], [-104.053, 42.612], [-104.053, 43.001], [-103.505, 43.001], [-103.402, 42.004], [-104.053, 42.002], [-104.053, 41.001], [-105.277, 40.998], [-105.252, 41.657]]], [[[-95.253, 28.988], [-95.507, 28.825], [-95.769, 28.97], [-95.874, 29.23], [-95.753, 29.325], [-95.626, 29.293], [-95.424, 29.58], [-95.826, 29.788], [-95.961, 30.164], [-95.941, 30.144], [-95.899, 30.121], [-95.873, 30.122], [-95.839, 30.083], [-95.817, 30.082], [-95.54, 30.17], [-95.29, 30.028], [-95.096, 30.167], [-94.909, 29.827], [-94.916, 29.696], [-94.93, 29.674], [-94.971, 29.688], [-94.966, 29.7], [-94.989, 29.709], [-94.988, 29.721], [-94.995, 29.708], [-95.005, 29.713], [-95.016, 29.706], [-95.025, 29.728], [-95.051, 29.734], [-95.07, 29.759], [-95.079, 29.764], [-95.088, 29.763], [-95.049, 29.729], [-95.056, 29.709], [-95.028, 29.727], [-95.025, 29.699], [-95.024, 29.699], [-95.02, 29.702], [-95.017, 29.703], [-94.999, 29.699], [-94.983, 29.684], [-94.983, 29.6], [-95.15, 29.498], [-95.217, 29.554], [-95.232, 29.463], [-95.057, 29.201], [-95.095, 29.18], [-95.099, 29.193], [-95.103, 29.192], [-95.107, 29.183], [-95.207, 29.213], [-95.182, 29.189], [-95.157, 29.196], [-95.148, 29.179], [-95.18, 29.076], [-95.221, 29.048], [-95.241, 29.0], [-95.204, 29.018], [-95.155, 29.054], [-95.168, 29.063], [-95.16, 29.074], [-95.157, 29.072], [-95.16, 29.065], [-95.157, 29.07], [-95.138, 29.069], [-95.134, 29.081], [-95.122, 29.073], [-95.243, 28.985], [-95.253, 28.988]], [[-94.912, 29.812], [-94.912, 29.814], [-94.913, 29.812], [-94.912, 29.812]], [[-95.058, 29.73], [-95.058, 29.729], [-95.057, 29.729], [-95.058, 29.73]], [[-95.056, 29.728], [-95.058, 29.728], [-95.056, 29.727], [-95.056, 29.728]], [[-95.021, 29.701], [-95.027, 29.687], [-95.023, 29.683], [-95.021, 29.701]], [[-95.199, 29.561], [-95.199, 29.562], [-95.2, 29.561], [-95.199, 29.561]], [[-95.201, 29.562], [-95.2, 29.563], [-95.201, 29.563], [-95.201, 29.562]], [[-95.216, 29.556], [-95.217, 29.556], [-95.216, 29.555], [-95.216, 29.556]], [[-95.122, 29.198], [-95.12, 29.199], [-95.12, 29.2], [-95.122, 29.198]], [[-95.15, 29.202], [-95.151, 29.202], [-95.151, 29.201], [-95.15, 29.202]], [[-95.174, 29.115], [-95.175, 29.116], [-95.175, 29.115], [-95.174, 29.115]], [[-95.197, 29.102], [-95.199, 29.101], [-95.196, 29.102], [-95.197, 29.102]], [[-95.233, 29.003], [-95.234, 29.002], [-95.233, 29.002], [-95.233, 29.003]], [[-95.234, 29.002], [-95.236, 29.0], [-95.237, 28.999], [-95.234, 29.002]], [[-95.16, 29.067], [-95.161, 29.067], [-95.16, 29.066], [-95.16, 29.067]], [[-95.128, 29.198], [-95.13, 29.198], [-95.13, 29.197], [-95.128, 29.198]], [[-95.134, 29.199], [-95.133, 29.2], [-95.134, 29.2], [-95.134, 29.199]], [[-95.133, 29.199], [-95.132, 29.198], [-95.132, 29.199], [-95.133, 29.199]], [[-95.132, 29.198], [-95.131, 29.197], [-95.131, 29.198], [-95.132, 29.198]], [[-95.136, 29.199], [-95.135, 29.2], [-95.136, 29.2], [-95.136, 29.199]], [[-95.142, 29.199], [-95.141, 29.2], [-95.142, 29.2], [-95.142, 29.199]], [[-95.141, 29.199], [-95.14, 29.198], [-95.139, 29.199], [-95.141, 29.199]], [[-95.138, 29.199], [-95.138, 29.2], [-95.139, 29.199], [-95.138, 29.199]], [[-95.14, 29.201], [-95.141, 29.201], [-95.141, 29.2], [-95.14, 29.201]], [[-95.141, 29.203], [-95.142, 29.202], [-95.14, 29.202], [-95.141, 29.203]], [[-95.143, 29.205], [-95.144, 29.202], [-95.143, 29.202], [-95.143, 29.205]], [[-95.151, 29.064], [-95.15, 29.063], [-95.15, 29.064], [-95.151, 29.064]], [[-95.149, 29.062], [-95.148, 29.061], [-95.15, 29.063], [-95.149, 29.062]], [[-95.147, 29.06], [-95.147, 29.061], [-95.148, 29.061], [-95.147, 29.06]], [[-95.146, 29.059], [-95.146, 29.06], [-95.147, 29.06], [-95.146, 29.059]], [[-95.145, 29.058], [-95.145, 29.059], [-95.146, 29.059], [-95.145, 29.058]], [[-95.154, 29.067], [-95.153, 29.066], [-95.153, 29.067], [-95.154, 29.067]], [[-95.152, 29.065], [-95.152, 29.066], [-95.153, 29.066], [-95.152, 29.065]], [[-95.235, 28.997], [-95.236, 28.995], [-95.234, 28.997], [-95.235, 28.997]], [[-95.245, 28.996], [-95.247, 28.995], [-95.255, 28.99], [-95.246, 28.993], [-95.245, 28.996]], [[-94.953, 29.686], [-94.954, 29.686], [-94.954, 29.685], [-94.953, 29.686]], [[-94.953, 29.686], [-94.952, 29.685], [-94.952, 29.686], [-94.953, 29.686]], [[-94.952, 29.684], [-94.951, 29.684], [-94.952, 29.685], [-94.952, 29.684]], [[-94.956, 29.687], [-94.957, 29.686], [-94.956, 29.686], [-94.956, 29.687]], [[-94.985, 29.682], [-94.985, 29.683], [-94.986, 29.683], [-94.985, 29.682]], [[-95.01, 29.686], [-95.003, 29.681], [-94.99, 29.682], [-95.01, 29.686]], [[-94.991, 29.723], [-94.992, 29.722], [-94.991, 29.722], [-94.991, 29.723]], [[-95.001, 29.715], [-95.001, 29.714], [-95.0, 29.715], [-95.001, 29.715]], [[-95.003, 29.713], [-95.002, 29.713], [-95.002, 29.714], [-95.003, 29.713]], [[-95.146, 29.734], [-95.096, 29.743], [-95.086, 29.759], [-95.146, 29.734]]], [[[-95.688, 30.104], [-95.687, 30.104], [-95.688, 30.103], [-95.688, 30.104]]], [[[-95.947, 30.154], [-95.948, 30.155], [-95.947, 30.155], [-95.947, 30.154]]], [[[-98.102, 34.681], [-98.142, 34.507], [-98.662, 34.406], [-98.662, 34.507], [-98.826, 34.507], [-98.826, 34.594], [-99.103, 34.638], [-99.037, 34.69], [-99.159, 34.71], [-99.145, 34.85], [-99.306, 34.857], [-99.323, 35.037], [-99.409, 35.115], [-98.621, 35.097], [-98.637, 36.165], [-97.676, 36.165], [-97.669, 34.681], [-98.102, 34.681]]], [[[-95.488, 35.3], [-95.455, 35.16], [-95.35, 35.16], [-95.349, 35.029], [-95.508, 35.029], [-95.515, 34.594], [-95.882, 34.594], [-95.882, 34.681], [-96.092, 34.681], [-96.089, 35.05], [-96.012, 35.146], [-95.488, 35.3]]], [[[-97.101, 35.942], [-96.62, 35.942], [-96.615, 36.164], [-96.03, 36.075], [-96.033, 35.857], [-96.192, 35.857], [-96.193, 35.639], [-96.621, 35.639], [-96.625, 35.463], [-97.141, 35.464], [-97.101, 35.942]]], [[[-99.456, 36.999], [-99.0, 36.999], [-99.013, 37.47], [-98.465, 37.471], [-98.465, 37.384], [-98.349, 37.38], [-98.347, 36.998], [-98.112, 36.998], [-98.104, 36.463], [-98.534, 36.463], [-98.609, 36.391], [-98.961, 36.507], [-99.062, 36.716], [-99.294, 36.805], [-99.456, 36.999]]], [[[-100.251, 41.74], [-99.212, 41.741], [-99.208, 41.047], [-100.238, 41.047], [-100.251, 41.74]]], [[[-98.296, 41.915], [-97.833, 41.916], [-97.83, 41.526], [-98.291, 41.481], [-98.296, 41.915]]], [[[-98.956, 42.895], [-98.305, 42.761], [-98.301, 42.089], [-99.235, 42.088], [-99.257, 42.804], [-98.956, 42.895]]], [[[-95.164, 46.681], [-95.146, 46.107], [-96.265, 46.109], [-96.281, 46.631], [-96.172, 46.631], [-96.175, 46.718], [-95.164, 46.681]]], [[[-97.706, 47.24], [-96.831, 47.237], [-96.839, 47.006], [-96.753, 46.925], [-96.786, 46.64], [-97.682, 46.63], [-97.706, 47.24]], [[-96.8, 46.666], [-96.8, 46.669], [-96.802, 46.667], [-96.8, 46.666]]], [[[-99.481, 47.327], [-98.467, 47.327], [-98.439, 46.631], [-99.45, 46.632], [-99.481, 47.327]]], [[[-96.501, 48.155], [-96.482, 47.847], [-96.353, 47.847], [-96.352, 47.76], [-95.837, 47.761], [-95.837, 47.848], [-95.709, 47.849], [-95.71, 47.936], [-95.582, 47.934], [-95.554, 47.5], [-96.849, 47.499], [-96.888, 47.672], [-97.882, 47.672], [-97.903, 48.195], [-97.138, 48.195], [-97.163, 48.544], [-95.602, 48.539], [-95.594, 48.173], [-96.501, 48.155]]], [[[-95.252, 28.981], [-95.25, 28.984], [-95.247, 28.984], [-95.252, 28.981]]], [[[-95.247, 28.994], [-95.247, 28.995], [-95.246, 28.994], [-95.247, 28.994]]], [[[-95.2308064516129, 29.0061935483871], [-95.23, 29.007], [-95.22833333333332, 29.008666666666667], [-95.2308064516129, 29.0061935483871]]], [[[-95.22749999999999, 29.0095], [-95.22833333333332, 29.008666666666667], [-95.228, 29.009], [-95.22749999999999, 29.0095]]], [[[-95.225, 29.012], [-95.22749999999999, 29.0095], [-95.226, 29.011], [-95.225, 29.012]]], [[[-95.221, 29.015], [-95.224, 29.015], [-95.221, 29.016], [-95.221, 29.015]]], [[[-95.216, 29.018], [-95.217, 29.017], [-95.217, 29.018], [-95.216, 29.018]]], [[[-95.22, 29.018], [-95.22, 29.019], [-95.217, 29.021], [-95.22, 29.018]]], [[[-95.228, 29.024], [-95.227, 29.025], [-95.227, 29.024], [-95.228, 29.024]]], [[[-95.159, 29.081], [-95.16, 29.083], [-95.16, 29.084], [-95.159, 29.081]]], [[[-95.163, 29.085], [-95.152, 29.1], [-95.137, 29.082], [-95.139, 29.072], [-95.149, 29.07], [-95.158, 29.077], [-95.164, 29.074], [-95.166, 29.078], [-95.164, 29.082], [-95.158, 29.079], [-95.158, 29.083], [-95.161, 29.085], [-95.163, 29.085]], [[-95.158, 29.079], [-95.156, 29.078], [-95.156, 29.079], [-95.158, 29.079]], [[-95.155, 29.079], [-95.155, 29.08], [-95.156, 29.079], [-95.155, 29.079]], [[-95.141, 29.08], [-95.141, 29.081], [-95.142, 29.08], [-95.141, 29.08]], [[-95.143, 29.077], [-95.144, 29.076], [-95.143, 29.076], [-95.143, 29.077]], [[-95.143, 29.077], [-95.142, 29.079], [-95.143, 29.079], [-95.143, 29.077]], [[-95.145, 29.075], [-95.145, 29.076], [-95.146, 29.075], [-95.145, 29.075]], [[-95.15, 29.074], [-95.148, 29.075], [-95.15, 29.075], [-95.15, 29.074]], [[-95.151, 29.075], [-95.15, 29.077], [-95.151, 29.077], [-95.151, 29.075]], [[-95.152, 29.079], [-95.152, 29.078], [-95.151, 29.078], [-95.152, 29.079]], [[-95.152, 29.079], [-95.153, 29.08], [-95.153, 29.079], [-95.152, 29.079]], [[-95.163, 29.079], [-95.164, 29.079], [-95.163, 29.078], [-95.163, 29.079]]], [[[-95.163, 29.102], [-95.163, 29.103], [-95.162, 29.102], [-95.163, 29.102]]], [[[-95.124, 29.17], [-95.124, 29.171], [-95.123, 29.171], [-95.124, 29.17]]], [[[-95.117, 29.178], [-95.115, 29.177], [-95.12, 29.173], [-95.117, 29.178]]], [[[-95.111, 29.178], [-95.11149999999999, 29.178], [-95.111, 29.179], [-95.111, 29.178]]], [[[-95.097, 29.179], [-95.096, 29.179], [-95.097, 29.178], [-95.097, 29.179]]], [[[-95.096, 29.18], [-95.095, 29.18], [-95.096, 29.179], [-95.096, 29.18]]], [[[-95.103, 29.19], [-95.102, 29.191], [-95.102, 29.19], [-95.103, 29.19]]], [[[-95.102, 29.191], [-95.101, 29.192], [-95.101, 29.191], [-95.102, 29.191]]], [[[-95.197, 29.208], [-95.196, 29.208], [-95.197, 29.207], [-95.197, 29.208]]], [[[-94.97, 29.681], [-94.978, 29.685], [-94.969, 29.683], [-94.97, 29.681]]], [[[-94.973, 29.691], [-94.985, 29.691], [-94.992, 29.698], [-94.973, 29.691]]], [[[-95.021, 29.704], [-95.022, 29.704], [-95.02233333333334, 29.704333333333334], [-95.021, 29.704]]], [[[-95.018, 29.707], [-95.017, 29.707], [-95.017, 29.706], [-95.018, 29.707]]], [[[-94.99, 29.709], [-94.989, 29.709], [-94.989, 29.708], [-94.99, 29.709]]], [[[-95.005, 29.711], [-95.005, 29.712], [-95.004, 29.712], [-95.005, 29.711]]], [[[-95.048, 29.729], [-95.049, 29.73], [-95.048, 29.73], [-95.048, 29.729]]], [[[-95.079, 29.76], [-95.079, 29.762], [-95.078, 29.761], [-95.079, 29.76]]], [[[-92.978, 30.861], [-92.979, 30.598], [-93.131, 30.598], [-93.131, 30.403], [-93.385, 30.403], [-93.385, 30.49], [-93.481, 30.491], [-93.486, 30.403], [-93.741, 30.403], [-93.728, 30.574], [-93.526, 30.929], [-93.578, 30.998], [-93.508, 31.029], [-93.564, 31.095], [-93.556, 31.242], [-93.391, 31.364], [-93.237, 31.365], [-93.338, 31.714], [-93.442, 31.714], [-93.441, 31.914], [-93.28, 31.887], [-93.238, 31.973], [-93.189, 31.972], [-93.121, 31.973], [-93.158, 32.009], [-93.187, 32.149], [-92.938, 32.147], [-92.905, 32.091], [-92.912, 32.076], [-92.887, 32.03], [-92.885, 32.012], [-92.901, 31.988], [-92.872, 31.946], [-92.976, 31.711], [-92.683, 31.499], [-92.695, 31.401], [-92.196, 31.478], [-92.072, 31.344], [-92.115, 31.312], [-92.146, 31.302], [-92.233, 31.321], [-92.208, 30.962], [-92.388, 31.002], [-92.519, 30.893], [-92.978, 30.861]], [[-92.888, 32.027], [-92.888, 32.026], [-92.887, 32.026], [-92.888, 32.027]], [[-92.132, 31.308], [-92.131, 31.309], [-92.132, 31.309], [-92.132, 31.308]], [[-93.557, 31.095], [-93.557, 31.096], [-93.558, 31.096], [-93.557, 31.095]], [[-93.151, 32.004], [-93.152, 32.006], [-93.152, 32.004], [-93.151, 32.004]]], [[[-90.232, 32.044], [-90.123, 31.752], [-90.737, 31.699], [-90.728, 32.26], [-90.554, 32.532], [-90.72, 32.619], [-90.664, 32.689], [-90.76, 32.836], [-90.657, 32.923], [-90.45, 32.923], [-90.449, 33.009], [-89.73, 32.885], [-89.784, 32.587], [-89.73, 32.047], [-90.232, 32.044]]], [[[-92.884, 31.982], [-92.885, 31.983], [-92.884, 31.983], [-92.884, 31.982]]], [[[-92.896, 31.988], [-92.897, 31.989], [-92.896, 31.989], [-92.896, 31.988]]], [[[-92.896, 32.048], [-92.896, 32.049], [-92.895, 32.049], [-92.896, 32.048]]], [[[-90.759, 32.815], [-90.759, 32.814], [-90.76, 32.814], [-90.759, 32.815]]], [[[-94.862, 33.742], [-95.157, 33.943], [-95.151, 34.244], [-95.047, 34.244], [-95.047, 34.507], [-94.938, 34.507], [-94.938, 34.681], [-95.06, 34.681], [-95.06, 34.855], [-94.928, 34.942], [-94.928, 35.203], [-94.814, 35.202], [-94.814, 35.323], [-94.493, 35.301], [-94.434, 35.387], [-94.488, 33.627], [-94.735, 33.691], [-94.821, 33.769], [-94.822, 33.733], [-94.862, 33.742]], [[-94.773, 33.76], [-94.761, 33.747], [-94.758, 33.757], [-94.773, 33.76]], [[-94.875, 33.77], [-94.866, 33.763], [-94.873, 33.771], [-94.875, 33.77]]], [[[-94.467, 35.377], [-94.468, 35.37675], [-94.468, 35.377], [-94.467, 35.377]]], [[[-82.764, 27.581], [-82.761, 27.603], [-82.758, 27.577], [-82.764, 27.581]]], [[[-82.576, 27.635], [-82.576, 27.638], [-82.573, 27.637], [-82.576, 27.635]]], [[[-82.672, 27.645], [-82.67, 27.641], [-82.672, 27.644], [-82.672, 27.645]]], [[[-82.673, 27.646], [-82.673, 27.645], [-82.674, 27.646], [-82.673, 27.646]]], [[[-82.675, 27.647], [-82.674, 27.647], [-82.674, 27.646], [-82.675, 27.647]]], [[[-82.676, 27.648], [-82.675, 27.65], [-82.675, 27.648], [-82.676, 27.648]]], [[[-82.678, 27.649], [-82.678, 27.65], [-82.677, 27.649], [-82.678, 27.649]]], [[[-82.527, 27.677], [-82.529, 27.682], [-82.528, 27.682], [-82.527, 27.677]]], [[[-82.524, 27.689], [-82.522, 27.687], [-82.524, 27.688], [-82.524, 27.689]]], [[[-82.517, 27.694], [-82.516, 27.694], [-82.516, 27.693], [-82.517, 27.694]]], [[[-82.516, 27.694], [-82.515, 27.695], [-82.515, 27.694], [-82.516, 27.694]]], [[[-82.478, 27.716], [-82.475, 27.718], [-82.471, 27.716], [-82.478, 27.716]]], [[[-82.487, 27.719], [-82.487, 27.718], [-82.488, 27.718], [-82.487, 27.719]]], [[[-82.491, 27.719], [-82.491, 27.718], [-82.492, 27.719], [-82.491, 27.719]]], [[[-82.477, 27.735], [-82.477, 27.738], [-82.476, 27.735], [-82.477, 27.735]]], [[[-82.479, 27.739], [-82.479, 27.742], [-82.478, 27.739], [-82.479, 27.739]]], [[[-82.481, 27.742], [-82.48, 27.743], [-82.48, 27.742], [-82.481, 27.742]]], [[[-82.476, 27.739], [-82.48, 27.745], [-82.475, 27.747], [-82.476, 27.739]]], [[[-82.482, 27.743], [-82.481, 27.744], [-82.481, 27.743], [-82.482, 27.743]]], [[[-82.475, 27.747], [-82.466, 27.747], [-82.473, 27.743], [-82.475, 27.747]]], [[[-82.548, 27.941], [-82.561, 27.938], [-82.548, 27.942], [-82.549, 27.941], [-82.548, 27.941]]], [[[-82.546, 27.942], [-82.548, 27.941333333333333], [-82.544, 27.943], [-82.546, 27.942]]], [[[-82.542, 27.943], [-82.543, 27.943], [-82.542, 27.943333333333335], [-82.542, 27.943]]], [[[-82.544, 27.943], [-82.543, 27.944], [-82.542, 27.944], [-82.544, 27.943]]], [[[-82.544, 27.943500000000004], [-82.545, 27.944], [-82.544, 27.944], [-82.544, 27.943500000000004]]], [[[-82.543, 27.944], [-82.543, 27.945], [-82.542, 27.945], [-82.543, 27.944]]], [[[-82.571, 27.968], [-82.573, 27.967], [-82.574, 27.969], [-82.571, 27.968]]], [[[-82.582, 27.971], [-82.574, 27.97], [-82.574, 27.969], [-82.582, 27.971]]], [[[-82.615, 27.971], [-82.616, 27.971], [-82.613, 27.972], [-82.615, 27.971]]], [[[-82.61, 27.971], [-82.601, 27.974], [-82.592, 27.973], [-82.61, 27.971]]], [[[-82.588, 27.973], [-82.592, 27.974], [-82.587, 27.973], [-82.588, 27.973]]], [[[-82.582, 27.978], [-82.583, 27.976], [-82.583, 27.978], [-82.582, 27.978]]], [[[-82.623, 27.995], [-82.6225, 27.9945], [-82.623, 27.994], [-82.623, 27.995]]], [[[-82.622, 27.996], [-82.62100000000001, 27.996], [-82.622, 27.995], [-82.622, 27.996]]], [[[-82.625, 28.002], [-82.624, 28.0], [-82.628, 28.001], [-82.625, 28.002]]], [[[-82.616, 28.003], [-82.617, 28.002], [-82.617, 28.003], [-82.616, 28.003]]], [[[-82.628, 28.007], [-82.629, 28.006], [-82.629, 28.007], [-82.628, 28.007]]], [[[-82.63, 28.012], [-82.629, 28.011], [-82.63, 28.011], [-82.63, 28.012]]], [[[-82.628, 28.014], [-82.629, 28.013], [-82.629, 28.014], [-82.628, 28.014]]], [[[-87.632, 33.61], [-87.25, 33.514], [-86.884, 33.843], [-86.525, 33.721], [-86.517, 33.524], [-86.983, 33.246], [-87.156, 33.23], [-87.319, 33.006], [-87.832, 33.017], [-87.841, 33.525], [-87.667, 33.522], [-87.632, 33.61]]], [[[-86.154, 34.534], [-86.15, 34.53], [-86.154, 34.53], [-86.154, 34.534]]], [[[-86.155, 34.55], [-86.359, 34.633], [-86.351, 34.874], [-86.256, 34.928], [-86.311, 34.991], [-85.605, 34.985], [-85.583, 34.86], [-85.786, 34.624], [-86.035, 34.473], [-86.155, 34.55]]], [[[-88.459, 40.603], [-88.46, 40.282], [-89.263, 40.281], [-89.269, 40.595], [-89.044, 40.627], [-88.929, 40.753], [-88.931, 40.928], [-89.048, 40.926], [-89.047, 41.105], [-89.162, 41.104], [-89.167, 41.629], [-88.602, 41.631], [-88.586, 41.108], [-88.251, 41.113], [-88.235, 40.618], [-88.459, 40.603]]], [[[-87.526, 40.968], [-87.526, 40.491], [-88.118, 40.488], [-88.132, 40.998], [-87.526, 40.968]]], [[[-80.044, 26.546], [-80.047, 26.546], [-80.047, 26.548], [-80.044, 26.546]]], [[[-80.611, 26.958], [-80.08, 26.971], [-80.071, 26.945], [-80.086, 26.949], [-80.09, 26.946], [-80.077, 26.943], [-80.071, 26.944], [-80.031, 26.797], [-80.039, 26.773], [-80.036, 26.811], [-80.058, 26.843], [-80.045, 26.647], [-80.053, 26.537], [-80.049, 26.537], [-80.049, 26.543], [-80.046, 26.543], [-80.045, 26.544], [-80.045, 26.545], [-80.045, 26.546], [-80.044, 26.545], [-80.043, 26.545], [-80.043, 26.544], [-80.075, 26.321], [-80.882, 26.334], [-80.886, 26.745], [-80.731, 26.682], [-80.611, 26.958]], [[-80.079, 26.951], [-80.08, 26.949], [-80.08, 26.948], [-80.079, 26.951]], [[-80.079, 26.951], [-80.078, 26.95], [-80.078, 26.952], [-80.079, 26.952], [-80.079, 26.951]], [[-80.09, 26.947], [-80.09, 26.949], [-80.09, 26.95], [-80.103, 26.956], [-80.101, 26.949], [-80.09, 26.947]], [[-80.091, 26.947], [-80.091, 26.946], [-80.09, 26.947], [-80.091, 26.947]], [[-80.088, 26.943], [-80.088, 26.944], [-80.089, 26.945], [-80.088, 26.943]], [[-80.088, 26.943], [-80.087, 26.942], [-80.087, 26.943], [-80.088, 26.943]], [[-80.085, 26.942], [-80.084, 26.934], [-80.083, 26.934], [-80.085, 26.942]], [[-80.05, 26.594], [-80.05, 26.593], [-80.049, 26.593], [-80.05, 26.594]], [[-80.101, 26.964], [-80.102, 26.961], [-80.1, 26.962], [-80.101, 26.964]], [[-80.102, 26.961], [-80.104, 26.96], [-80.104, 26.958], [-80.102, 26.961]], [[-80.046, 26.541], [-80.046, 26.542], [-80.047, 26.54], [-80.046, 26.541]], [[-80.047, 26.539], [-80.048, 26.537], [-80.047, 26.538], [-80.047, 26.539]], [[-80.054, 26.527], [-80.052, 26.535], [-80.053, 26.535], [-80.054, 26.527]], [[-80.057, 26.826], [-80.057, 26.827], [-80.058, 26.827], [-80.057, 26.826]]], [[[-80.044, 26.546], [-80.042, 26.563], [-80.046, 26.557], [-80.046, 26.568], [-80.037, 26.687], [-80.043, 26.769], [-80.036, 26.771], [-80.033, 26.696], [-80.037, 26.585], [-80.042, 26.546], [-80.044, 26.546]], [[-80.042, 26.563], [-80.039, 26.579], [-80.04, 26.582], [-80.042, 26.563]], [[-80.045, 26.563], [-80.044, 26.565], [-80.045, 26.565], [-80.045, 26.563]], [[-80.044, 26.565], [-80.043, 26.567], [-80.044, 26.568], [-80.044, 26.565]]], [[[-80.049, 26.775], [-80.043, 26.773], [-80.048, 26.77], [-80.049, 26.775]]], [[[-80.044, 26.783], [-80.042, 26.785], [-80.041, 26.783], [-80.044, 26.783]]], [[[-80.044, 26.816], [-80.044, 26.815], [-80.045, 26.815], [-80.044, 26.816]]], [[[-80.046, 26.819], [-80.045, 26.816], [-80.045, 26.815], [-80.045, 26.812], [-80.046, 26.819]]], [[[-80.045, 26.821], [-80.046, 26.82], [-80.046, 26.821], [-80.045, 26.821]]], [[[-80.077, 26.945], [-80.078, 26.944], [-80.078, 26.945], [-80.077, 26.945]]], [[[-80.091, 26.949], [-80.09, 26.949], [-80.091, 26.948], [-80.091, 26.949]]], [[[-80.093, 26.95], [-80.092, 26.949], [-80.093, 26.949], [-80.093, 26.95]]], [[[-81.149, 27.7], [-81.15, 27.699], [-81.15, 27.7], [-81.149, 27.7]]], [[[-82.459, 27.712], [-82.455, 27.708], [-82.462, 27.708], [-82.459, 27.712]]], [[[-82.464, 27.716], [-82.463, 27.716], [-82.464, 27.715], [-82.464, 27.716]]], [[[-82.446, 27.719], [-82.447, 27.718], [-82.448, 27.719], [-82.447, 27.719], [-82.446, 27.719]]], [[[-82.469, 27.744], [-82.47, 27.739], [-82.472, 27.743], [-82.469, 27.744]]], [[[-82.462, 27.749], [-82.464, 27.751], [-82.463, 27.751], [-82.462, 27.749]]], [[[-82.44, 27.76], [-82.441, 27.759], [-82.441, 27.76], [-82.44, 27.76]]], [[[-82.41, 27.772], [-82.414, 27.771], [-82.415, 27.774], [-82.41, 27.772]]], [[[-82.416, 27.774], [-82.415, 27.772], [-82.416, 27.772], [-82.416, 27.774]]], [[[-82.416, 27.775], [-82.417, 27.774], [-82.417, 27.775], [-82.416, 27.775]]], [[[-82.418, 27.78], [-82.415, 27.78], [-82.415, 27.779], [-82.418, 27.78]]], [[[-82.42, 27.781], [-82.421, 27.782], [-82.419, 27.781], [-82.42, 27.781]]], [[[-82.417, 27.781], [-82.42, 27.783], [-82.418, 27.783], [-82.417, 27.781]]], [[[-82.423, 27.784], [-82.424, 27.785], [-82.423, 27.785], [-82.423, 27.784]]], [[[-82.414, 27.795], [-82.413, 27.794], [-82.414, 27.794], [-82.414, 27.795]]], [[[-82.416, 27.796], [-82.416, 27.797], [-82.415, 27.796], [-82.416, 27.796]]], [[[-81.201, 27.797], [-81.2, 27.798], [-81.2, 27.797], [-81.201, 27.797]]], [[[-82.414, 27.802], [-82.415, 27.802], [-82.415, 27.803], [-82.414, 27.802]]], [[[-82.415, 27.804], [-82.415, 27.803], [-82.416, 27.804], [-82.415, 27.804]]], [[[-82.395, 27.83], [-82.395, 27.829], [-82.396, 27.829], [-82.395, 27.83]]], [[[-82.395, 27.836], [-82.394, 27.835], [-82.395, 27.835], [-82.395, 27.836]]], [[[-81.258, 27.846], [-81.259, 27.847], [-81.258, 27.847], [-81.258, 27.846]]], [[[-81.302, 27.865], [-81.299, 27.862], [-81.302, 27.862], [-81.302, 27.865]]], [[[-82.401, 27.88], [-82.401, 27.879], [-82.402, 27.88], [-82.401, 27.88]]], [[[-82.449, 27.907], [-82.451, 27.908], [-82.449, 27.908], [-82.449, 27.907]]], [[[-82.448, 27.909], [-82.447, 27.908], [-82.448, 27.908], [-82.448, 27.909]]], [[[-82.629, 28.003], [-82.631, 28.002], [-82.638, 28.007], [-82.643, 28.027], [-82.649, 28.018], [-82.651, 28.173], [-82.056, 28.172], [-82.054, 27.646], [-82.554, 27.645], [-82.533, 27.678], [-82.513, 27.67], [-82.496, 27.681], [-82.522, 27.691], [-82.514, 27.693], [-82.491, 27.711], [-82.489, 27.708], [-82.486, 27.715], [-82.454, 27.703], [-82.456, 27.706], [-82.454, 27.709], [-82.454, 27.712], [-82.457, 27.713], [-82.459, 27.716], [-82.482, 27.719], [-82.477, 27.734], [-82.474, 27.73], [-82.471, 27.731], [-82.474, 27.732], [-82.474, 27.741], [-82.47, 27.738], [-82.462, 27.739], [-82.466, 27.746], [-82.465, 27.749], [-82.459, 27.746], [-82.457, 27.753], [-82.443, 27.755], [-82.443, 27.758], [-82.44, 27.759], [-82.44, 27.76], [-82.44, 27.761], [-82.439, 27.761], [-82.438, 27.761], [-82.437, 27.761], [-82.431, 27.767], [-82.431, 27.771], [-82.41, 27.767], [-82.408, 27.773], [-82.411, 27.775], [-82.414, 27.774], [-82.416, 27.775], [-82.416, 27.776], [-82.418, 27.776], [-82.417, 27.773], [-82.428, 27.774], [-82.423, 27.781], [-82.432, 27.773], [-82.435, 27.777], [-82.419, 27.793], [-82.414, 27.793], [-82.423, 27.782], [-82.412, 27.776], [-82.417, 27.784], [-82.414, 27.788], [-82.407, 27.787], [-82.401, 27.793], [-82.412, 27.794], [-82.413, 27.796], [-82.412, 27.8], [-82.399, 27.8], [-82.412, 27.806], [-82.398, 27.807], [-82.412, 27.809], [-82.384, 27.82], [-82.393, 27.824], [-82.395, 27.832], [-82.386, 27.856], [-82.392, 27.849], [-82.397, 27.853], [-82.386, 27.858], [-82.368, 27.857], [-82.368, 27.854], [-82.357, 27.857], [-82.383, 27.864], [-82.403, 27.854], [-82.434, 27.898], [-82.408, 27.903], [-82.429, 27.906], [-82.416, 27.909], [-82.426, 27.91], [-82.413, 27.928], [-82.412, 27.948], [-82.418, 27.954], [-82.434, 27.941], [-82.436, 27.904], [-82.447, 27.924], [-82.445, 27.925000000000008], [-82.447, 27.925], [-82.447, 27.926], [-82.447, 27.928], [-82.446, 27.928], [-82.446, 27.934], [-82.441, 27.939], [-82.441, 27.949], [-82.45, 27.942], [-82.448, 27.927], [-82.452, 27.931], [-82.454, 27.93], [-82.446, 27.909], [-82.491, 27.918], [-82.472, 27.823], [-82.475, 27.821], [-82.487, 27.822], [-82.492, 27.831], [-82.5, 27.825], [-82.529, 27.837], [-82.535, 27.833], [-82.555, 27.851], [-82.528, 27.938], [-82.531, 27.936], [-82.546, 27.942], [-82.538, 27.943], [-82.553, 27.967], [-82.572, 27.962], [-82.568, 27.976], [-82.582, 27.978], [-82.583, 27.983], [-82.6, 27.98], [-82.622, 27.993], [-82.6225, 27.9945], [-82.621, 27.995], [-82.621, 27.997], [-82.623, 28.0], [-82.617, 28.0], [-82.615, 28.002], [-82.615, 28.005], [-82.629, 28.005], [-82.628, 28.006], [-82.628, 28.007], [-82.628, 28.009], [-82.627, 28.009], [-82.627, 28.017], [-82.629, 28.015], [-82.631, 28.018], [-82.629, 28.003]], [[-82.543, 27.661], [-82.542, 27.661], [-82.543, 27.662], [-82.543, 27.661]], [[-82.541, 27.662], [-82.54, 27.661], [-82.54, 27.662], [-82.541, 27.662]], [[-82.499, 27.684], [-82.498, 27.685], [-82.499, 27.685], [-82.499, 27.684]], [[-82.455, 27.707], [-82.453, 27.706], [-82.452, 27.705], [-82.452, 27.706], [-82.455, 27.707]], [[-82.454, 27.707], [-82.453, 27.708], [-82.454, 27.708], [-82.454, 27.707]], [[-82.457, 27.717], [-82.45, 27.716], [-82.45, 27.718], [-82.457, 27.717]], [[-82.454, 27.713], [-82.454, 27.714], [-82.455, 27.714], [-82.454, 27.713]], [[-82.45, 27.719], [-82.447, 27.716], [-82.442, 27.717], [-82.445, 27.72], [-82.45, 27.719]], [[-82.441, 27.718], [-82.438, 27.716], [-82.438, 27.719], [-82.441, 27.718]], [[-82.462, 27.718], [-82.458, 27.717], [-82.458, 27.718], [-82.462, 27.718]], [[-82.478, 27.72], [-82.48, 27.721], [-82.48, 27.72], [-82.478, 27.72]], [[-82.478, 27.725], [-82.473, 27.724], [-82.474, 27.729], [-82.478, 27.725]], [[-82.455, 27.752], [-82.454, 27.751], [-82.454, 27.752], [-82.455, 27.752]], [[-82.455, 27.751], [-82.457, 27.749], [-82.455, 27.749], [-82.455, 27.751]], [[-82.438, 27.76], [-82.437, 27.76], [-82.438, 27.761], [-82.438, 27.76]], [[-82.431, 27.767], [-82.429, 27.766], [-82.43, 27.768], [-82.431, 27.767]], [[-82.429, 27.768], [-82.429, 27.769], [-82.43, 27.768], [-82.429, 27.768]], [[-82.42, 27.777], [-82.419, 27.776], [-82.419, 27.777], [-82.42, 27.777]], [[-82.421, 27.776], [-82.421, 27.775], [-82.42, 27.776], [-82.421, 27.776]], [[-82.42, 27.775], [-82.419, 27.775], [-82.419, 27.776], [-82.42, 27.775]], [[-82.425, 27.782], [-82.426, 27.782], [-82.425, 27.781], [-82.425, 27.782]], [[-82.426, 27.782], [-82.427, 27.783], [-82.427, 27.782], [-82.426, 27.782]], [[-82.424, 27.783], [-82.422, 27.784], [-82.423, 27.786], [-82.424, 27.785], [-82.425, 27.784], [-82.424, 27.783]], [[-82.414, 27.785], [-82.413, 27.785], [-82.414, 27.786], [-82.414, 27.785]], [[-82.407, 27.785], [-82.41, 27.786], [-82.41, 27.785], [-82.407, 27.785]], [[-82.412, 27.797], [-82.411, 27.798], [-82.412, 27.798], [-82.412, 27.797]], [[-82.388, 27.823], [-82.388, 27.824], [-82.389, 27.823], [-82.388, 27.823]], [[-82.388, 27.825], [-82.386, 27.823], [-82.385, 27.825], [-82.388, 27.825]], [[-82.385, 27.825], [-82.384, 27.824], [-82.384, 27.825], [-82.385, 27.825]], [[-82.401, 27.859], [-82.4, 27.859], [-82.4, 27.86], [-82.401, 27.859]], [[-82.446, 27.926], [-82.445, 27.927], [-82.447, 27.926], [-82.446, 27.926]], [[-82.452, 27.932], [-82.45299999999999, 27.93299999999999], [-82.452, 27.931], [-82.452, 27.932]], [[-82.453, 27.93300000000001], [-82.453, 27.933], [-82.45299999999999, 27.93299999999999], [-82.453, 27.93300000000001]], [[-82.453, 27.93300000000001], [-82.454, 27.935], [-82.455, 27.937], [-82.453, 27.93300000000001]], [[-82.462, 27.918], [-82.46, 27.917], [-82.46, 27.918], [-82.462, 27.918]], [[-82.531, 27.89], [-82.532, 27.887], [-82.531, 27.887], [-82.531, 27.89]], [[-82.529, 27.915], [-82.528, 27.914], [-82.528, 27.915], [-82.529, 27.915]], [[-82.53, 27.922], [-82.529, 27.921], [-82.529, 27.923], [-82.53, 27.922]], [[-82.527, 27.936], [-82.526, 27.937], [-82.527, 27.937], [-82.527, 27.936]], [[-82.526, 27.937], [-82.525, 27.938], [-82.526, 27.938], [-82.526, 27.937]], [[-82.531, 27.938], [-82.53, 27.94], [-82.531, 27.94], [-82.531, 27.938]], [[-82.537, 27.941], [-82.536, 27.943], [-82.537, 27.943], [-82.537, 27.941]], [[-82.567, 27.971], [-82.568, 27.969], [-82.566, 27.969], [-82.567, 27.971]], [[-82.567, 27.975], [-82.565, 27.974], [-82.565, 27.975], [-82.567, 27.975]], [[-82.565, 27.978], [-82.564, 27.978], [-82.563, 27.98], [-82.565, 27.978]], [[-82.582, 27.979], [-82.581, 27.98], [-82.582, 27.98], [-82.582, 27.979]], [[-82.606, 27.991], [-82.606, 27.992], [-82.607, 27.991], [-82.606, 27.991]], [[-82.615, 28.002], [-82.613, 28.002], [-82.613, 28.003], [-82.615, 28.002]], [[-82.627, 28.009], [-82.626, 28.008], [-82.626, 28.009], [-82.627, 28.009]], [[-82.631, 28.006], [-82.631, 28.005], [-82.63, 28.006], [-82.631, 28.006]], [[-82.354, 27.856], [-82.347, 27.857], [-82.354, 27.857], [-82.354, 27.856]], [[-82.347, 27.858], [-82.345, 27.857], [-82.345, 27.859], [-82.347, 27.858]], [[-82.359, 27.854], [-82.363, 27.855], [-82.363, 27.853], [-82.359, 27.854]], [[-82.368, 27.852], [-82.367, 27.852], [-82.368, 27.853], [-82.368, 27.852]], [[-82.369, 27.855], [-82.369, 27.856], [-82.37, 27.855], [-82.369, 27.855]], [[-82.376, 27.855], [-82.375, 27.854], [-82.374, 27.855], [-82.376, 27.855]], [[-82.383, 27.827], [-82.382, 27.826], [-82.382, 27.827], [-82.383, 27.827]], [[-82.384, 27.822], [-82.385, 27.822], [-82.384, 27.821], [-82.384, 27.822]], [[-82.39, 27.837], [-82.389, 27.836], [-82.389, 27.837], [-82.39, 27.837]], [[-82.392, 27.778], [-82.399, 27.78], [-82.399, 27.778], [-82.392, 27.778]], [[-82.397, 27.768], [-82.398, 27.768], [-82.397, 27.767], [-82.397, 27.768]], [[-82.397, 27.767], [-82.396, 27.766], [-82.396, 27.767], [-82.397, 27.767]], [[-82.399, 27.772], [-82.401, 27.769], [-82.4, 27.769], [-82.399, 27.772]], [[-82.4, 27.769], [-82.399, 27.768], [-82.399, 27.769], [-82.4, 27.769]], [[-82.405, 27.778], [-82.4, 27.777], [-82.4, 27.778], [-82.405, 27.778]], [[-82.403, 27.772], [-82.402, 27.771], [-82.402, 27.772], [-82.403, 27.772]], [[-82.403, 27.772], [-82.407, 27.773], [-82.407, 27.772], [-82.403, 27.772]], [[-82.405, 27.798], [-82.406, 27.797], [-82.405, 27.797], [-82.405, 27.798]], [[-82.408, 27.775], [-82.409, 27.779], [-82.409, 27.775], [-82.408, 27.775]], [[-82.411, 27.914], [-82.412, 27.913], [-82.411, 27.913], [-82.411, 27.914]], [[-82.415, 27.912], [-82.415, 27.911], [-82.414, 27.914], [-82.415, 27.912]], [[-82.421, 27.787], [-82.421, 27.788], [-82.422, 27.786], [-82.421, 27.787]], [[-82.423, 27.777], [-82.424, 27.776], [-82.423, 27.776], [-82.423, 27.777]], [[-82.428, 27.767], [-82.427, 27.768], [-82.428, 27.768], [-82.428, 27.767]], [[-82.429, 27.78], [-82.431, 27.778], [-82.429, 27.778], [-82.429, 27.78]], [[-82.428, 27.781], [-82.429, 27.781], [-82.429, 27.78], [-82.428, 27.781]], [[-82.436, 27.718], [-82.437, 27.717], [-82.436, 27.717], [-82.436, 27.718]], [[-82.436, 27.717], [-82.435, 27.716], [-82.435, 27.717], [-82.436, 27.717]], [[-82.435, 27.719], [-82.434, 27.72], [-82.436, 27.718], [-82.435, 27.719]], [[-82.435, 27.759], [-82.436, 27.76], [-82.436, 27.759], [-82.435, 27.759]], [[-82.453, 27.92], [-82.454, 27.919], [-82.453, 27.919], [-82.453, 27.92]], [[-82.455, 27.916], [-82.456, 27.917], [-82.456, 27.916], [-82.455, 27.916]], [[-82.457, 27.92], [-82.458, 27.919], [-82.456, 27.92], [-82.457, 27.92]], [[-82.458, 27.932], [-82.457, 27.931], [-82.457, 27.932], [-82.458, 27.932]], [[-82.46, 27.913], [-82.459, 27.914], [-82.46, 27.914], [-82.46, 27.913]], [[-82.459, 27.922], [-82.46, 27.921], [-82.459, 27.921], [-82.459, 27.922]], [[-82.46, 27.928], [-82.461, 27.927], [-82.46, 27.927], [-82.46, 27.928]], [[-82.463, 27.743], [-82.461, 27.741], [-82.461, 27.743], [-82.463, 27.743]], [[-82.467, 27.729], [-82.466, 27.731], [-82.467, 27.731], [-82.467, 27.729]], [[-82.469, 27.735], [-82.469, 27.736], [-82.47, 27.736], [-82.469, 27.735]], [[-82.471, 27.727], [-82.47, 27.73], [-82.471, 27.73], [-82.471, 27.727]], [[-82.473, 27.726], [-82.47, 27.725], [-82.47, 27.726], [-82.473, 27.726]], [[-82.472, 27.738], [-82.471, 27.737], [-82.471, 27.738], [-82.472, 27.738]], [[-82.472, 27.728], [-82.472, 27.729], [-82.473, 27.727], [-82.472, 27.728]], [[-82.473, 27.737], [-82.472, 27.736], [-82.472, 27.737], [-82.473, 27.737]], [[-82.476, 27.823], [-82.475, 27.822], [-82.475, 27.823], [-82.476, 27.823]], [[-82.499, 27.829], [-82.498, 27.83], [-82.499, 27.83], [-82.499, 27.829]], [[-82.524, 27.914], [-82.525, 27.914], [-82.524, 27.913], [-82.524, 27.914]], [[-82.527, 27.934], [-82.528, 27.934], [-82.527, 27.933], [-82.527, 27.934]], [[-82.527, 27.931], [-82.528, 27.932], [-82.528, 27.931], [-82.527, 27.931]], [[-82.527, 27.929], [-82.529, 27.929], [-82.527, 27.928], [-82.527, 27.929]], [[-82.528, 27.898], [-82.529, 27.898], [-82.528, 27.897], [-82.528, 27.898]], [[-82.531, 27.674], [-82.53, 27.674], [-82.531, 27.675], [-82.531, 27.674]], [[-82.531, 27.896], [-82.53, 27.895], [-82.53, 27.896], [-82.531, 27.896]], [[-82.532, 27.939], [-82.532, 27.941], [-82.533, 27.941], [-82.532, 27.939]], [[-82.533, 27.674], [-82.535, 27.672], [-82.533, 27.673], [-82.533, 27.674]], [[-82.536, 27.67], [-82.537, 27.671], [-82.537, 27.67], [-82.536, 27.67]], [[-82.537, 27.961], [-82.538, 27.96], [-82.537, 27.96], [-82.537, 27.961]], [[-82.538, 27.951], [-82.538, 27.95], [-82.537, 27.95], [-82.538, 27.951]], [[-82.54, 27.961], [-82.54, 27.96], [-82.539, 27.961], [-82.54, 27.961]], [[-82.544, 27.962], [-82.545, 27.962], [-82.544, 27.961], [-82.544, 27.962]], [[-82.544, 27.96], [-82.543, 27.96], [-82.544, 27.961], [-82.544, 27.96]], [[-82.551, 27.969], [-82.552, 27.968], [-82.551, 27.968], [-82.551, 27.969]], [[-82.553, 27.968], [-82.552, 27.974], [-82.553, 27.974], [-82.553, 27.968]], [[-82.555, 27.971], [-82.554, 27.973], [-82.555, 27.973], [-82.555, 27.971]], [[-82.554, 27.968], [-82.558, 27.974], [-82.558, 27.97], [-82.565, 27.968], [-82.554, 27.968]], [[-82.562, 27.972], [-82.56, 27.972], [-82.562, 27.973], [-82.562, 27.972]], [[-82.561, 27.975], [-82.561, 27.977], [-82.562, 27.975], [-82.561, 27.975]], [[-82.561, 27.977], [-82.561, 27.979], [-82.562, 27.979], [-82.561, 27.977]], [[-82.563, 27.981], [-82.562, 27.982], [-82.563, 27.982], [-82.563, 27.981]], [[-82.578, 27.98], [-82.578, 27.981], [-82.579, 27.979], [-82.578, 27.98]], [[-82.58, 27.982], [-82.579, 27.981], [-82.579, 27.982], [-82.58, 27.982]], [[-82.583, 27.991], [-82.582, 27.993], [-82.583, 27.993], [-82.583, 27.991]], [[-82.581, 27.994], [-82.581, 27.993], [-82.58, 27.994], [-82.581, 27.994]], [[-82.581, 27.981], [-82.582, 27.982], [-82.582, 27.981], [-82.581, 27.981]], [[-82.61, 28.008], [-82.609, 28.007], [-82.609, 28.008], [-82.61, 28.008]], [[-82.612, 28.004], [-82.611, 28.003], [-82.611, 28.004], [-82.612, 28.004]], [[-82.611, 28.004], [-82.61, 28.005], [-82.611, 28.005], [-82.611, 28.004]], [[-82.629, 28.019], [-82.63, 28.02], [-82.63, 28.019], [-82.629, 28.019]], [[-82.628, 28.019], [-82.629, 28.017], [-82.628, 28.017], [-82.628, 28.019]], [[-82.632, 28.008], [-82.631, 28.007], [-82.631, 28.008], [-82.632, 28.008]], [[-82.632, 28.021], [-82.633, 28.022], [-82.633, 28.021], [-82.632, 28.021]], [[-82.632, 28.021], [-82.631, 28.02], [-82.631, 28.021], [-82.632, 28.021]], [[-82.633, 28.024], [-82.633, 28.023], [-82.632, 28.024], [-82.633, 28.024]], [[-82.634, 28.005], [-82.632, 28.006], [-82.634, 28.006], [-82.634, 28.005]]], [[[-82.443, 27.92], [-82.442, 27.92], [-82.444, 27.919], [-82.443, 27.92]]], [[[-82.424, 27.928], [-82.423, 27.927], [-82.424, 27.927], [-82.424, 27.928]]], [[[-82.428, 27.932], [-82.424, 27.928], [-82.429, 27.931], [-82.428, 27.932]]], [[[-81.434, 28.024], [-81.346, 28.085], [-81.456, 28.085], [-81.557, 28.259], [-81.657, 28.259], [-81.657, 28.347], [-80.863, 28.347], [-80.873, 27.642], [-81.142, 27.643], [-81.146, 27.711], [-81.169, 27.726], [-81.165, 27.743], [-81.214, 27.829], [-81.434, 28.024]], [[-81.167, 27.733], [-81.166, 27.732], [-81.166, 27.733], [-81.167, 27.733]], [[-81.429, 28.021], [-81.428, 28.022], [-81.429, 28.022], [-81.429, 28.021]]], [[[-82.312, 28.96], [-82.535, 29.041], [-82.535, 29.215], [-82.403, 29.216], [-82.407, 29.485], [-82.211, 29.484], [-82.213, 29.431], [-82.151, 29.427], [-82.147, 29.417], [-81.845, 29.522], [-81.662, 29.363], [-81.659, 28.96], [-82.312, 28.96]], [[-82.154, 29.424], [-82.153, 29.423], [-82.153, 29.424], [-82.154, 29.424]], [[-82.095, 29.421], [-82.099, 29.427], [-82.099, 29.419], [-82.095, 29.421]], [[-82.093, 29.429], [-82.092, 29.429], [-82.093, 29.43], [-82.093, 29.429]], [[-82.391, 29.009], [-82.39, 29.01], [-82.391, 29.01], [-82.391, 29.009]], [[-82.458, 29.047], [-82.459, 29.048], [-82.459, 29.047], [-82.458, 29.047]]], [[[-82.188, 29.46], [-82.189, 29.46], [-82.188, 29.461], [-82.188, 29.46]]], [[[-81.906, 29.514], [-81.906, 29.513], [-81.907, 29.514], [-81.906, 29.514]]]]}}]}