{"type":"FeatureCollection","features":[{"type":"Feature","properties":{"name":"North Atlantic (NATL)","basin_code":"NATL","hazard_type":"tropical_cyclone","description":"North Atlantic, Caribbean, Gulf of Mexico"},"geometry":{"type":"Polygon","coordinates":[[[-100,30],[-97,28],[-95,26],[-92,25],[-90,23],[-87,22],[-84,21],[-81,19],[-78,18],[-75,16],[-72,14],[-68,12],[-65,10],[-60,9],[-55,11],[-50,15],[-48,20],[-48,25],[-50,30],[-55,35],[-55,40],[-50,42],[-45,42],[-40,40],[-35,35],[-35,25],[-35,15],[-35,10],[-40,8],[-50,10],[-60,15],[-70,20],[-75,25],[-80,28],[-80,30],[-78,33],[-76,35],[-74,38],[-70,40],[-68,42],[-65,43],[-60,42],[-58,38],[-72,33],[-80,30],[-85,29],[-89,29],[-94,30],[-100,30]]]}},{"type":"Feature","properties":{"name":"Eastern North Pacific (ENP)","basin_code":"ENP","hazard_type":"tropical_cyclone","description":"Eastern North Pacific, Mexico coast"},"geometry":{"type":"Polygon","coordinates":[[[-95,5],[-90,5],[-85,5],[-80,5],[-75,8],[-78,10],[-80,13],[-85,16],[-90,18],[-95,20],[-100,22],[-105,25],[-112,28],[-115,30],[-120,32],[-125,30],[-130,25],[-135,20],[-140,15],[-140,10],[-130,5],[-120,5],[-110,5],[-100,5],[-95,5]]]}},{"type":"Feature","properties":{"name":"Central Pacific (CP)","basin_code":"CP","hazard_type":"tropical_cyclone","description":"Central Pacific, Hawaii region"},"geometry":{"type":"Polygon","coordinates":[[[-140,5],[-140,30],[-180,30],[-180,0],[-140,0],[-140,5]]]}},{"type":"Feature","properties":{"name":"Western North Pacific (WNP)","basin_code":"WNP","hazard_type":"tropical_cyclone","description":"Western Pacific, Philippines, Japan, S China"},"geometry":{"type":"Polygon","coordinates":[[[100,5],[105,5],[110,5],[115,5],[120,5],[125,5],[130,5],[135,5],[140,5],[145,5],[150,5],[155,5],[160,5],[165,8],[170,12],[175,15],[175,20],[170,25],[165,30],[160,35],[155,40],[150,45],[145,48],[140,48],[135,45],[130,40],[130,35],[128,30],[125,25],[122,22],[120,20],[118,18],[115,16],[112,14],[110,12],[108,10],[106,8],[100,5]]]}},{"type":"Feature","properties":{"name":"North Indian (NI)","basin_code":"NI","hazard_type":"tropical_cyclone","description":"Bay of Bengal, Arabian Sea"},"geometry":{"type":"Polygon","coordinates":[[[50,5],[55,5],[60,5],[65,5],[70,5],[75,5],[80,5],[85,5],[90,5],[95,5],[95,8],[95,12],[95,15],[93,18],[92,21],[90,22],[88,21],[85,18],[82,15],[78,12],[75,10],[72,8],[68,10],[65,15],[62,20],[60,22],[58,22],[55,18],[50,12],[50,8],[50,5]]]}},{"type":"Feature","properties":{"name":"South-West Indian (SI)","basin_code":"SI","hazard_type":"tropical_cyclone","description":"South-West Indian Ocean, Madagascar, Mozambique"},"geometry":{"type":"Polygon","coordinates":[[[50,-5],[55,-5],[60,-5],[65,-5],[70,-5],[75,-5],[80,-5],[85,-5],[90,-5],[90,-10],[88,-15],[82,-20],[75,-25],[68,-30],[55,-35],[45,-35],[40,-30],[38,-25],[40,-20],[43,-15],[45,-10],[48,-8],[50,-5]]]}},{"type":"Feature","properties":{"name":"Australian (AUS)","basin_code":"AUS","hazard_type":"tropical_cyclone","description":"Australian region, Timor Sea, Coral Sea"},"geometry":{"type":"Polygon","coordinates":[[[90,-5],[95,-5],[100,-5],[105,-5],[110,-5],[115,-5],[120,-5],[125,-5],[130,-5],[135,-5],[140,-5],[145,-5],[150,-5],[155,-5],[160,-5],[160,-10],[158,-18],[155,-25],[150,-30],[145,-35],[142,-37],[138,-35],[135,-32],[132,-28],[130,-22],[128,-18],[125,-12],[120,-8],[115,-8],[110,-10],[105,-10],[100,-8],[95,-8],[90,-5]]]}},{"type":"Feature","properties":{"name":"South Pacific (SP)","basin_code":"SP","hazard_type":"tropical_cyclone","description":"South Pacific, Fiji, New Caledonia"},"geometry":{"type":"Polygon","coordinates":[[[160,-5],[165,-5],[170,-5],[175,-5],[-180,-5],[-175,-5],[-170,-5],[-165,-5],[-160,-5],[-155,-5],[-150,-5],[-145,-8],[-150,-12],[-155,-18],[-160,-25],[-165,-30],[-170,-35],[-165,-38],[-155,-37],[-145,-35],[-135,-32],[-130,-28],[-125,-22],[-120,-15],[-115,-10],[-110,-8],[-105,-5],[160,-5]]]}},{"type":"Feature","properties":{"name":"South Atlantic (SA)","basin_code":"SA","hazard_type":"tropical_cyclone","description":"South Atlantic (rare, e.g. Catarina 2004)"},"geometry":{"type":"Polygon","coordinates":[[[-65,-5],[-60,-5],[-50,-5],[-40,-5],[-30,-5],[-20,-5],[-10,-5],[0,-5],[10,-5],[20,-5],[20,-15],[15,-25],[10,-35],[0,-35],[-10,-30],[-20,-25],[-30,-20],[-40,-15],[-50,-10],[-60,-8],[-65,-5]]]}}]}